STARLINK-37283          
1 68568U 26070AC  26118.66668980 -.00075234  00000+0 -38026-3 0  9999
2 68568  53.1566 134.1199 0000950  86.4172 336.8300 15.80912349  5416
STARLINK-37256          
1 68569U 26070AD  26118.59313100  .00198198  00000+0  98159-3 0  9999
2 68569  53.1567 134.4946 0001039  93.6226 266.4915 15.80944498  4149
STARLINK-37228          
1 68570U 26070AE  26118.59163277  .00248594  00000+0  12221-2 0  9990
2 68570  53.1570 134.4874 0000934  73.1140 286.9985 15.80961579  4149
MERIDIAN-M 21L          
1 68571U 26071A   26118.86572734 -.00000028  00000+0  00000+0 0  9992
2 68571  62.7861 235.3647 7207363 285.0413  11.0145  2.00619252   526
KUIPER-00131            
1 68573U 26072A   26118.83334491 -.01943623  00000+0 -10958+0 0  9990
2 68573  51.8802  56.3384 0006383 181.2798 282.6306 15.16238223  4712
KUIPER-00189            
1 68574U 26072B   26118.83334491 -.00628812  00000+0 -45355-1 0  9991
2 68574  51.9027  57.5826 0001583 107.6063  85.4699 15.06050890  4288
KUIPER-00192            
1 68575U 26072C   26118.83334491  .00039353  00000+0  14021-2 0  9993
2 68575  51.8807  55.7643 0005336 191.7312 242.1333 15.28533654  3400
KUIPER-00193            
1 68576U 26072D   26118.54354059  .00037633  00000+0  99740-3 0  9995
2 68576  51.8782  56.9500 0003543 167.0180 193.0899 15.37969007  3748
KUIPER-00194            
1 68577U 26072E   26118.79828749  .00029699  00000+0  78446-3 0  9998
2 68577  51.8781  55.6566 0002878 156.4294 203.6825 15.38192145  3787
KUIPER-00229            
1 68578U 26072F   26118.83334491  .00027778  00000+0  12670-2 0  9992
2 68578  51.8789  56.3633 0007968 204.5690 307.7163 15.20398673  4832
KUIPER-00230            
1 68579U 26072G   26118.85622892  .00027814  00000+0  72224-3 0  9993
2 68579  51.8776  55.2950 0001899 134.1625 225.9519 15.38753966  3791
KUIPER-00231            
1 68580U 26072H   26118.79846337  .00026099  00000+0  68725-3 0  9995
2 68580  51.8764  55.6599 0002716 157.0261 203.0848 15.38358561  3785
KUIPER-00234            
1 68581U 26072J   26118.53268794 -.00307723  00000+0 -83872-2 0  9990
2 68581  51.8775  56.8794 0001903 134.1243 225.9901 15.38139057  3747
KUIPER-00236            
1 68582U 26072K   26118.53419385  .00016180  00000+0  42732-3 0  9998
2 68582  51.8768  56.8906 0002427 145.8050 214.3093 15.38589732  3745
KUIPER-00244            
1 68583U 26072L   26118.86508757  .00027329  00000+0  72220-3 0  9999
2 68583  51.8776  55.3559 0003660 173.1203 186.9835 15.38220194  3794
KUIPER-00253            
1 68584U 26072M   26118.87241801  .00024781  00000+0  66660-3 0  9995
2 68584  51.8734  55.4020 0005089 180.3859 179.7124 15.37722640  3790
