[{"OBJECT_NAME":"STARLINK-37283","OBJECT_ID":"2026-070AC","EPOCH":"2026-04-28T16:00:01.998720","MEAN_MOTION":15.80912349,"ECCENTRICITY":9.5e-5,"INCLINATION":53.1566,"RA_OF_ASC_NODE":134.1199,"ARG_OF_PERICENTER":86.4172,"MEAN_ANOMALY":336.83,"EPHEMERIS_TYPE":0,"CLASSIFICATION_TYPE":"U","NORAD_CAT_ID":68568,"ELEMENT_SET_NO":999,"REV_AT_EPOCH":541,"BSTAR":-0.00038026,"MEAN_MOTION_DOT":-0.00075234,"MEAN_MOTION_DDOT":0},{"OBJECT_NAME":"STARLINK-37256","OBJECT_ID":"2026-070AD","EPOCH":"2026-04-28T14:14:06.518400","MEAN_MOTION":15.80944498,"ECCENTRICITY":0.0001039,"INCLINATION":53.1567,"RA_OF_ASC_NODE":134.4946,"ARG_OF_PERICENTER":93.6226,"MEAN_ANOMALY":266.4915,"EPHEMERIS_TYPE":0,"CLASSIFICATION_TYPE":"U","NORAD_CAT_ID":68569,"ELEMENT_SET_NO":999,"REV_AT_EPOCH":414,"BSTAR":0.00098159,"MEAN_MOTION_DOT":0.00198198,"MEAN_MOTION_DDOT":0},{"OBJECT_NAME":"STARLINK-37228","OBJECT_ID":"2026-070AE","EPOCH":"2026-04-28T14:11:57.071328","MEAN_MOTION":15.80961579,"ECCENTRICITY":9.34e-5,"INCLINATION":53.157,"RA_OF_ASC_NODE":134.4874,"ARG_OF_PERICENTER":73.114,"MEAN_ANOMALY":286.9985,"EPHEMERIS_TYPE":0,"CLASSIFICATION_TYPE":"U","NORAD_CAT_ID":68570,"ELEMENT_SET_NO":999,"REV_AT_EPOCH":414,"BSTAR":0.0012221,"MEAN_MOTION_DOT":0.00248594,"MEAN_MOTION_DDOT":0},{"OBJECT_NAME":"MERIDIAN-M 21L","OBJECT_ID":"2026-071A","EPOCH":"2026-04-28T20:46:38.842176","MEAN_MOTION":2.00619252,"ECCENTRICITY":0.7207363,"INCLINATION":62.7861,"RA_OF_ASC_NODE":235.3647,"ARG_OF_PERICENTER":285.0413,"MEAN_ANOMALY":11.0145,"EPHEMERIS_TYPE":0,"CLASSIFICATION_TYPE":"U","NORAD_CAT_ID":68571,"ELEMENT_SET_NO":999,"REV_AT_EPOCH":52,"BSTAR":0,"MEAN_MOTION_DOT":-2.8e-7,"MEAN_MOTION_DDOT":0},{"OBJECT_NAME":"KUIPER-00131","OBJECT_ID":"2026-072A","EPOCH":"2026-04-28T20:00:01.000224","MEAN_MOTION":15.16238223,"ECCENTRICITY":0.0006383,"INCLINATION":51.8802,"RA_OF_ASC_NODE":56.3384,"ARG_OF_PERICENTER":181.2798,"MEAN_ANOMALY":282.6306,"EPHEMERIS_TYPE":0,"CLASSIFICATION_TYPE":"U","NORAD_CAT_ID":68573,"ELEMENT_SET_NO":999,"REV_AT_EPOCH":471,"BSTAR":-0.10958,"MEAN_MOTION_DOT":-0.01943623,"MEAN_MOTION_DDOT":0},{"OBJECT_NAME":"KUIPER-00189","OBJECT_ID":"2026-072B","EPOCH":"2026-04-28T20:00:01.000224","MEAN_MOTION":15.0605089,"ECCENTRICITY":0.0001583,"INCLINATION":51.9027,"RA_OF_ASC_NODE":57.5826,"ARG_OF_PERICENTER":107.6063,"MEAN_ANOMALY":85.4699,"EPHEMERIS_TYPE":0,"CLASSIFICATION_TYPE":"U","NORAD_CAT_ID":68574,"ELEMENT_SET_NO":999,"REV_AT_EPOCH":428,"BSTAR":-0.045355,"MEAN_MOTION_DOT":-0.00628812,"MEAN_MOTION_DDOT":0},{"OBJECT_NAME":"KUIPER-00192","OBJECT_ID":"2026-072C","EPOCH":"2026-04-28T20:00:01.000224","MEAN_MOTION":15.28533654,"ECCENTRICITY":0.0005336,"INCLINATION":51.8807,"RA_OF_ASC_NODE":55.7643,"ARG_OF_PERICENTER":191.7312,"MEAN_ANOMALY":242.1333,"EPHEMERIS_TYPE":0,"CLASSIFICATION_TYPE":"U","NORAD_CAT_ID":68575,"ELEMENT_SET_NO":999,"REV_AT_EPOCH":340,"BSTAR":0.0014021,"MEAN_MOTION_DOT":0.00039353,"MEAN_MOTION_DDOT":0},{"OBJECT_NAME":"KUIPER-00193","OBJECT_ID":"2026-072D","EPOCH":"2026-04-28T13:02:41.906976","MEAN_MOTION":15.37969007,"ECCENTRICITY":0.0003543,"INCLINATION":51.8782,"RA_OF_ASC_NODE":56.95,"ARG_OF_PERICENTER":167.018,"MEAN_ANOMALY":193.0899,"EPHEMERIS_TYPE":0,"CLASSIFICATION_TYPE":"U","NORAD_CAT_ID":68576,"ELEMENT_SET_NO":999,"REV_AT_EPOCH":374,"BSTAR":0.0009974,"MEAN_MOTION_DOT":0.00037633,"MEAN_MOTION_DDOT":0},{"OBJECT_NAME":"KUIPER-00194","OBJECT_ID":"2026-072E","EPOCH":"2026-04-28T19:09:32.039136","MEAN_MOTION":15.38192145,"ECCENTRICITY":0.0002878,"INCLINATION":51.8781,"RA_OF_ASC_NODE":55.6566,"ARG_OF_PERICENTER":156.4294,"MEAN_ANOMALY":203.6825,"EPHEMERIS_TYPE":0,"CLASSIFICATION_TYPE":"U","NORAD_CAT_ID":68577,"ELEMENT_SET_NO":999,"REV_AT_EPOCH":378,"BSTAR":0.00078446,"MEAN_MOTION_DOT":0.00029699,"MEAN_MOTION_DDOT":0},{"OBJECT_NAME":"KUIPER-00229","OBJECT_ID":"2026-072F","EPOCH":"2026-04-28T20:00:01.000224","MEAN_MOTION":15.20398673,"ECCENTRICITY":0.0007968,"INCLINATION":51.8789,"RA_OF_ASC_NODE":56.3633,"ARG_OF_PERICENTER":204.569,"MEAN_ANOMALY":307.7163,"EPHEMERIS_TYPE":0,"CLASSIFICATION_TYPE":"U","NORAD_CAT_ID":68578,"ELEMENT_SET_NO":999,"REV_AT_EPOCH":483,"BSTAR":0.001267,"MEAN_MOTION_DOT":0.00027778,"MEAN_MOTION_DDOT":0},{"OBJECT_NAME":"KUIPER-00230","OBJECT_ID":"2026-072G","EPOCH":"2026-04-28T20:32:58.178688","MEAN_MOTION":15.38753966,"ECCENTRICITY":0.0001899,"INCLINATION":51.8776,"RA_OF_ASC_NODE":55.295,"ARG_OF_PERICENTER":134.1625,"MEAN_ANOMALY":225.9519,"EPHEMERIS_TYPE":0,"CLASSIFICATION_TYPE":"U","NORAD_CAT_ID":68579,"ELEMENT_SET_NO":999,"REV_AT_EPOCH":379,"BSTAR":0.00072224,"MEAN_MOTION_DOT":0.00027814,"MEAN_MOTION_DDOT":0},{"OBJECT_NAME":"KUIPER-00231","OBJECT_ID":"2026-072H","EPOCH":"2026-04-28T19:09:47.235168","MEAN_MOTION":15.38358561,"ECCENTRICITY":0.0002716,"INCLINATION":51.8764,"RA_OF_ASC_NODE":55.6599,"ARG_OF_PERICENTER":157.0261,"MEAN_ANOMALY":203.0848,"EPHEMERIS_TYPE":0,"CLASSIFICATION_TYPE":"U","NORAD_CAT_ID":68580,"ELEMENT_SET_NO":999,"REV_AT_EPOCH":378,"BSTAR":0.00068725,"MEAN_MOTION_DOT":0.00026099,"MEAN_MOTION_DDOT":0},{"OBJECT_NAME":"KUIPER-00234","OBJECT_ID":"2026-072J","EPOCH":"2026-04-28T12:47:04.238016","MEAN_MOTION":15.38139057,"ECCENTRICITY":0.0001903,"INCLINATION":51.8775,"RA_OF_ASC_NODE":56.8794,"ARG_OF_PERICENTER":134.1243,"MEAN_ANOMALY":225.9901,"EPHEMERIS_TYPE":0,"CLASSIFICATION_TYPE":"U","NORAD_CAT_ID":68581,"ELEMENT_SET_NO":999,"REV_AT_EPOCH":374,"BSTAR":-0.0083872,"MEAN_MOTION_DOT":-0.00307723,"MEAN_MOTION_DDOT":0},{"OBJECT_NAME":"KUIPER-00236","OBJECT_ID":"2026-072K","EPOCH":"2026-04-28T12:49:14.348640","MEAN_MOTION":15.38589732,"ECCENTRICITY":0.0002427,"INCLINATION":51.8768,"RA_OF_ASC_NODE":56.8906,"ARG_OF_PERICENTER":145.805,"MEAN_ANOMALY":214.3093,"EPHEMERIS_TYPE":0,"CLASSIFICATION_TYPE":"U","NORAD_CAT_ID":68582,"ELEMENT_SET_NO":999,"REV_AT_EPOCH":374,"BSTAR":0.00042732,"MEAN_MOTION_DOT":0.0001618,"MEAN_MOTION_DDOT":0},{"OBJECT_NAME":"KUIPER-00244","OBJECT_ID":"2026-072L","EPOCH":"2026-04-28T20:45:43.566048","MEAN_MOTION":15.38220194,"ECCENTRICITY":0.000366,"INCLINATION":51.8776,"RA_OF_ASC_NODE":55.3559,"ARG_OF_PERICENTER":173.1203,"MEAN_ANOMALY":186.9835,"EPHEMERIS_TYPE":0,"CLASSIFICATION_TYPE":"U","NORAD_CAT_ID":68583,"ELEMENT_SET_NO":999,"REV_AT_EPOCH":379,"BSTAR":0.0007222,"MEAN_MOTION_DOT":0.00027329,"MEAN_MOTION_DDOT":0},{"OBJECT_NAME":"KUIPER-00253","OBJECT_ID":"2026-072M","EPOCH":"2026-04-28T20:56:16.916064","MEAN_MOTION":15.3772264,"ECCENTRICITY":0.0005089,"INCLINATION":51.8734,"RA_OF_ASC_NODE":55.402,"ARG_OF_PERICENTER":180.3859,"MEAN_ANOMALY":179.7124,"EPHEMERIS_TYPE":0,"CLASSIFICATION_TYPE":"U","NORAD_CAT_ID":68584,"ELEMENT_SET_NO":999,"REV_AT_EPOCH":379,"BSTAR":0.0006666,"MEAN_MOTION_DOT":0.00024781,"MEAN_MOTION_DDOT":0}]
